[{"OBJECT_NAME":"STARLINK-34603","OBJECT_ID":"2025-176Y","EPOCH":"2026-03-09T12:27:41.741568","MEAN_MOTION":15.30187827,"ECCENTRICITY":0.00013435,"INCLINATION":53.1574,"RA_OF_ASC_NODE":153.5708,"ARG_OF_PERICENTER":71.6489,"MEAN_ANOMALY":288.4657,"EPHEMERIS_TYPE":0,"CLASSIFICATION_TYPE":"U","NORAD_CAT_ID":65220,"ELEMENT_SET_NO":999,"REV_AT_EPOCH":3309,"BSTAR":0.00092131687,"MEAN_MOTION_DOT":0.00027017,"MEAN_MOTION_DDOT":0},{"OBJECT_NAME":"COSMOS 249 DEB","OBJECT_ID":"1968-091DJ","EPOCH":"2026-03-09T22:59:41.072064","MEAN_MOTION":14.2447733,"ECCENTRICITY":0.04678273,"INCLINATION":62.7651,"RA_OF_ASC_NODE":269.2895,"ARG_OF_PERICENTER":43.0913,"MEAN_ANOMALY":320.579,"EPHEMERIS_TYPE":0,"CLASSIFICATION_TYPE":"U","NORAD_CAT_ID":19362,"ELEMENT_SET_NO":999,"REV_AT_EPOCH":90582,"BSTAR":0.0013749035,"MEAN_MOTION_DOT":0.00010099,"MEAN_MOTION_DDOT":0}]
